G90
G1 X73.23221 Y130.38178 F6000.00000
G4 P1000.00000
G4 P5649.35159
G1 X80.83564 Y130.38178 F1320.00000
G1 X70.39366 Y130.38178 F1175.98631
G1 X78.69565 Y136.97107 F1891.62106
G1 X68.63439 Y130.25599 F2118.38326
G1 X80.82507 Y136.71378 F2512.20923
G1 X68.06286 Y130.33267 F2629.58533
G1 X70.15855 Y131.44283 F2512.20923
G1 X72.19700 Y130.23076 F2300.97795
G1 X74.16958 Y131.54730 F2118.38326
G1 X63.07683 Y124.95151 F2300.97795
G1 X73.13809 Y131.66659 F2118.38326
G1 X73.13809 Y131.66659 F2302.14906
G1 X73.13882 Y122.68200 F1481.64991
G1 X95.97142 Y135.49636 F3027.35634
G1 X91.50452 Y132.68239 F2779.75927
G1 X91.50452 Y132.68239 F1481.64991
G1 X78.93854 Y124.76632 F2779.75927
G1 X66.94122 Y132.77356 F2668.99566
G1 X79.50720 Y124.85749 F2779.75927
G1 X77.53462 Y126.17403 F2668.99566
G1 X75.63659 Y127.59595 F2471.20258
G1 X73.82147 Y129.12228 F2302.14906
G1 X69.72623 Y132.19024 F2471.20258
G1 X73.54015 Y128.98313 F2302.14906
G1 X73.54015 Y128.98313 F0.16971
G1 X73.53943 Y138.42514 F1569.75340
G1 X70.06994 Y134.95566 F2219.96654
G1 X74.10605 Y131.75219 F2525.01118
G1 X61.60272 Y123.40722 F2827.70241
G1 X66.18885 Y126.13415 F3071.43708
G1 X66.18885 Y126.13415 F1569.75340
G1 X91.28083 Y139.42616 F3353.39700
G1 X77.60379 Y131.29374 F3071.43708
G1 X73.19953 Y128.35425 F2827.70241
G1 X90.85661 Y142.36869 F2525.01118
G1 X90.85585 Y136.42445 F933.38096
G1 X85.76631 Y134.82134 F3106.82245
G1 X80.60813 Y133.45512 F3645.49248
G1 X75.51859 Y131.85201 F3106.82245
G1 X70.53456 Y130.08989 F2800.14285
G1 X83.42635 Y135.20600 F2530.41008
G1 X83.42635 Y135.20600 F933.38096
G1 X69.35141 Y130.22976 F2800.14285
G1 X82.24321 Y135.34587 F2530.41008
G1 X82.24321 Y135.34587 F933.38096
G1 X77.97948 Y133.21401 F2087.10326
G1 X61.72895 Y124.60559 F1993.94179
G1 X74.64538 Y129.44378 F2511.55851
G1 X74.64538 Y129.44378 F880.99431
G1 X60.54546 Y134.14906 F2783.11893
G1 X72.88886 Y129.25059 F2388.38908
G1 X72.88886 Y129.25059 F880.99431
G1 X85.80528 Y134.08878 F2511.55851
G1 X74.56324 Y129.08102 F2165.11125
G1 X62.21985 Y133.97950 F2388.38908
G1 X62.21985 Y133.97950 F0.16971
G1 X85.46114 Y115.53288 F2383.29319
G1 X70.19562 Y120.62713 F3123.94537
G1 X70.19562 Y120.62713 F988.88268
G1 X75.15181 Y122.48361 F2819.12911
G1 X70.19562 Y124.34008 F2819.12911
G1 X83.05998 Y129.74888 F2551.40434
G1 X83.05998 Y129.74888 F988.88268
G1 X70.19562 Y135.15768 F2551.40434
G1 X82.48738 Y129.68232 F2430.25520
G1 X69.62301 Y135.09112 F2551.40434
G1 X94.81864 Y122.49330 F2087.10326
G1 X94.81779 Y128.73631 F880.99431
G1 X90.07195 Y131.10923 F1969.96315
G1 X84.95935 Y128.83182 F2165.11125
G1 X84.95935 Y128.83182 F880.99431
G1 X70.42311 Y134.27676 F2511.55851
G1 X90.00846 Y129.38042 F3632.43257
G1 X70.47727 Y134.86118 F3660.09622
G1 X70.47727 Y134.86118 F988.88268
G1 X96.44841 Y126.68078 F3291.56373
G1 X93.72637 Y127.58915 F3123.94537
G1 X93.55842 Y127.65207 F2819.12911
G1 X92.01883 Y128.13700 F3291.56373
G1 X77.53465 Y134.22685 F2551.40434
G1 X77.53465 Y134.22685 F0.16971
G1 X60.42594 Y126.60579 F3244.00150
G1 X63.04724 Y127.77344 F3244.00150
G1 X65.61389 Y129.05677 F2951.60973
G1 X68.11632 Y130.46121 F2697.06789
G1 X82.41017 Y122.43906 F2697.06789
G1 X82.41017 Y122.43906 F1320.00001
G1 X70.03973 Y130.69534 F2377.80482
G1 X74.97003 Y128.36855 F2064.20710
G1 X69.05194 Y130.34347 F2783.11893
G1 X92.52679 Y137.32259 F3091.48778
G1 X71.07677 Y130.16450 F2783.11893
G1 X71.07677 Y130.16450 F880.99431
G1 X79.76083 Y133.06246 F2783.11893
G1 X71.66938 Y130.03159 F2511.55851
G1 X168.35552 Y130.03652 F2351.97262
G1 X153.99174 Y130.03710 F2963.29981
G1 X149.24812 Y130.03730 F2963.29981
G1 X147.13984 Y130.03739 F2640.00000
G1 X145.03157 Y130.03750 F2351.97262
G1 X142.92329 Y130.03763 F1977.76535
G1 X142.92329 Y130.03763 F0.16971
G1 X115.45143 Y130.03903 F2351.97262
G1 X115.45026 Y130.04020 F0.16971
G1 X115.45006 Y131.51592 F880.99431
G1 X115.44960 Y128.13329 F880.99431
G1 X115.44940 Y129.60900 F880.99431
G1 X115.44894 Y132.99163 F880.99431
G1 X115.44874 Y131.51592 F880.99431
G1 X115.44827 Y128.13329 F880.99431
G1 X115.44794 Y130.56246 F880.99431
G1 X108.89822 Y124.01274 F1663.09579
G1 X100.83419 Y130.41316 F1891.62106
G1 X91.46637 Y124.16089 F2118.38326
G1 X87.35704 Y126.33773 F2512.20923
G1 X83.15672 Y128.43789 F2629.58533
G1 X78.95641 Y130.53804 F2629.58533
G1 X78.95641 Y130.53804 F1175.98631
G1 X74.84707 Y128.36120 F2512.20923
G1 X74.84707 Y128.36120 F2219.96654
G1 X63.53007 Y134.35618 F2512.20923
G1 X67.42316 Y132.04133 F2300.97795
G1 X71.07024 Y129.60719 F2118.38326
G1 X80.43807 Y135.85947 F2118.38326
G1 X67.53401 Y130.11136 F2890.07678
G1 X79.37059 Y136.02965 F2629.58533
G1 X75.17028 Y133.92949 F2629.58533
G1 X71.06094 Y131.75265 F2512.20923
G1 X75.17028 Y129.57581 F2512.20923
G1 X70.96996 Y131.67597 F2629.58533
G1 X75.17028 Y129.57581 F2629.58533
G1 X71.06094 Y131.75265 F2512.20923
G1 X75.08326 Y129.36096 F2582.76043
G1 X71.27459 Y131.90295 F2377.80482
G1 X80.51404 Y124.56960 F2249.52922
G1 X71.32610 Y132.29570 F2302.14906
G1 X71.32677 Y123.47147 F1569.75340
G1 X81.39501 Y131.46264 F2525.01118
G1 X69.81730 Y123.73544 F2827.70241
G1 X73.89460 Y126.15982 F3071.43708
G1 X69.70280 Y128.38035 F3353.39700
G1 X73.89460 Y130.60088 F3353.39700
G1 X69.81730 Y128.17650 F3071.43708
G1 X69.81730 Y128.17650 F2640.00000
G1 X73.89460 Y130.60088 F3071.43708
G1 X73.89460 Y130.60088 F1569.75340
G1 X69.95315 Y127.97028 F2827.70241
G1 X73.89460 Y130.60088 F2827.70241
G1 X70.24767 Y127.70630 F2525.01118
G1 X73.89460 Y130.60088 F2525.01118
G1 X69.85222 Y128.80020 F2165.11125
G1 X78.45274 Y133.91410 F1826.28741
G1 X74.55634 Y131.96590 F2087.10326
G1 X70.22644 Y130.24758 F2530.41008
G1 X82.19261 Y134.99636 F2530.41008
G1 X77.72807 Y133.41790 F2800.14285
G1 X73.22838 Y131.91631 F2948.61179
G1 X77.72807 Y130.41472 F2948.61179
G1 X73.26352 Y128.83627 F2800.14285
G1 X68.79898 Y130.41472 F2800.14285
G1 X72.93186 Y128.57373 F2293.85546
G1 X77.06473 Y130.41472 F2293.85546
G1 X73.16834 Y128.46652 F2087.10326
G1 X83.12564 Y133.44518 F2087.10326
G1 X76.57592 Y126.89545 F1663.09579
G1 X68.51189 Y133.29587 F1891.62106
G1 X77.87972 Y127.04360 F2118.38326
G1 X73.77038 Y129.22044 F2512.20923
G1 X69.57007 Y131.32060 F2629.58533
G1 X73.77038 Y129.22044 F2629.58533
G1 X69.66105 Y131.39729 F2512.20923
G1 X80.97806 Y125.40231 F2512.20923
G1 X80.97806 Y125.40231 F0.16971
G1 X77.08497 Y127.71716 F2300.97795
G1 X73.43788 Y130.15129 F2118.38326
G1 X64.07006 Y136.40357 F2118.38326
G1 X76.97412 Y130.65546 F2890.07678
G1 X65.13754 Y124.73717 F2629.58533
G1 X69.33785 Y126.83733 F2629.58533
G1 X73.44718 Y129.01417 F2512.20923
G1 X69.33785 Y131.19101 F2512.20923
G1 X73.53817 Y129.09086 F2629.58533
G1 X69.33785 Y131.19101 F2629.58533
G1 X73.44718 Y129.01417 F2512.20923
G1 X69.42486 Y131.40586 F2582.76043
G1 X73.23354 Y128.86387 F2377.80482
G1 X63.99409 Y136.19723 F2249.52922
G1 X73.18203 Y128.47112 F2302.14906
G1 X73.18270 Y137.29535 F1569.75340
G1 X83.25095 Y129.30419 F2525.01118
G1 X71.67323 Y137.03138 F2827.70241
G1 X75.75053 Y134.60701 F3071.43708
G1 X71.55873 Y132.38648 F3353.39700
G1 X75.75053 Y130.16595 F3353.39700
G1 X71.67323 Y132.59032 F3071.43708
G1 X75.75053 Y130.16595 F3071.43708
G1 X71.80909 Y132.79654 F2827.70241
G1 X71.80909 Y132.79654 F2351.97262
G1 X75.75053 Y130.16595 F2827.70241
G1 X75.75053 Y130.16595 F1569.75340
G1 X72.10360 Y133.06052 F2525.01118
G1 X75.75053 Y130.16595 F2525.01118
G1 X71.70816 Y131.96662 F2165.11125
G1 X80.30867 Y126.85272 F1826.28741
G1 X76.41228 Y128.80092 F2087.10326
G1 X72.08237 Y130.51924 F2530.41008
G1 X84.04854 Y125.77047 F2530.41008
G1 X79.58400 Y127.34892 F2800.14285
G1 X75.08431 Y128.85051 F2948.61179
G1 X70.58462 Y130.35210 F2948.61179
G1 X75.04917 Y131.93056 F2800.14285
G1 X70.58462 Y130.35210 F2800.14285
G1 X74.71750 Y132.19309 F2293.85546
G1 X70.58462 Y130.35210 F2293.85546
G1 X70.58462 Y130.35210 F933.38096
G1 X74.48102 Y132.30030 F2087.10326
G1 X74.48102 Y132.30030 F1866.76191
G1 X64.52372 Y127.32165 F2087.10326
G1 X76.36030 Y133.23994 F2629.58533
G1 X63.45624 Y127.49183 F2890.07678
G1 X74.77325 Y133.48681 F2512.20923
G1 X70.57293 Y131.38665 F2629.58533
G1 X74.46602 Y129.07181 F2300.97795
G1 X70.57293 Y131.38665 F2300.97795
G1 X74.68226 Y129.20981 F2512.20923
G1 X70.57293 Y131.38665 F2512.20923
G1 X74.34571 Y129.00995 F2206.29640
G1 X64.69558 Y136.66926 F2383.29319
G1 X74.34571 Y129.00995 F2383.29319
G1 X62.40697 Y134.02957 F2551.40434
G1 X75.41509 Y129.15703 F2819.12911
G1 X63.99701 Y134.24321 F2430.25520
G1 X68.29948 Y132.43424 F2551.40434
G1 X72.29120 Y130.43838 F2211.20887
G1 X76.28293 Y128.44252 F2211.20887
G1 X72.07252 Y130.31804 F2430.25520
G1 X76.28293 Y132.19356 F2430.25520
G1 X72.41288 Y130.14348 F2112.50774
G1 X82.37018 Y135.12213 F2087.10326
G1 X72.41288 Y130.14348 F2087.10326
G1 X81.92599 Y134.90003 F1969.96315
G1 X71.46231 Y130.23899 F2165.11125
G1 X75.81684 Y131.87010 F2511.55851
G1 X71.21485 Y130.71960 F3632.43257
G1 X75.81684 Y129.56910 F3632.43257
G1 X71.24963 Y130.85073 F3260.77503
G1 X75.77412 Y129.42561 F3291.56373
G1 X71.20691 Y130.70724 F3660.09622
G1 X85.85225 Y126.09424 F3291.56373
G1 X85.85154 Y131.97228 F988.88268
G1 X85.85084 Y125.10432 F1175.98631
G1 X71.94918 Y131.29680 F3244.00150
G1 X84.76299 Y124.88990 F2951.60973
G1 X73.01458 Y131.48347 F2697.06789
G1 X83.24457 Y124.65577 F2377.80482
G1 X73.26352 Y129.36620 F2064.20710
G1 X60.20259 Y133.72476 F2783.11893
G1 X73.26352 Y129.36620 F2783.11893
G1 X59.11078 Y133.57383 F3091.48778
G1 X63.44342 Y131.64386 F2890.07678
G1 X63.44342 Y131.64386 F1175.98631
G1 X67.64374 Y129.54370 F2629.58533
G1 X67.64374 Y129.54370 F2351.97262
G1 X79.48032 Y135.46199 F2629.58533
G1 X67.64374 Y129.54370 F2629.58533
G1 X79.48032 Y135.46199 F2629.58533
G1 X67.54158 Y130.44237 F2551.40434
G1 X67.54229 Y124.56434 F988.88268
G1 X67.54301 Y130.44237 F988.88268
G1 X67.54372 Y124.56434 F988.88268
G1 X81.44538 Y130.75682 F3244.00150
G1 X67.54372 Y124.56434 F3244.00150
G1 X71.87688 Y126.49454 F3244.00150
G1 X76.31909 Y128.15849 F3763.08589
G1 X62.41743 Y134.35097 F3244.00150
G1 X67.16105 Y134.35078 F2963.29981
G1 X69.18191 Y133.74998 F3091.48778
G1 X76.92059 Y131.44925 F3091.48778
G1 X74.92073 Y130.78188 F2783.11893
G1 X67.57408 Y128.33023 F2783.11893
G1 X69.54839 Y129.06976 F2511.55851
G1 X76.44835 Y131.65433 F2511.55851
G1 X71.95884 Y130.15613 F2783.11893
G1 X78.50856 Y136.70585 F1663.09579
G1 X70.44454 Y130.30543 F1891.62106
G1 X79.81236 Y136.55771 F2118.38326
G1 X75.70303 Y134.38086 F2512.20923
G1 X71.50271 Y132.28070 F2629.58533
G1 X75.70303 Y130.18055 F2629.58533
G1 X71.59370 Y132.35739 F2512.20923
G1 X82.91070 Y126.36241 F2512.20923
G1 X79.01761 Y128.67726 F2300.97795
G1 X75.37053 Y131.11140 F2118.38326
G1 X66.00270 Y124.85913 F2118.38326
G1 X78.90676 Y130.60723 F2890.07678
G1 X67.07018 Y124.68894 F2629.58533
G1 X71.27049 Y126.78910 F2629.58533
G1 X75.37983 Y128.96594 F2512.20923
G1 X71.27049 Y131.14278 F2512.20923
G1 X75.47081 Y129.04262 F2629.58533
G1 X71.27049 Y131.14278 F2629.58533
G1 X75.37983 Y128.96594 F2512.20923
G1 X71.35751 Y131.35763 F2582.76043
G1 X75.16618 Y128.81564 F2377.80482
G1 X65.92673 Y136.14899 F2249.52922
G1 X75.11467 Y128.42289 F2302.14906
G1 X75.11400 Y137.24712 F1569.75340
G1 X75.11400 Y137.24712 F0.16971
G1 X65.04576 Y129.25595 F2525.01118
G1 X76.62347 Y136.98315 F2827.70241
G1 X72.54617 Y134.55877 F3071.43708
G1 X76.73797 Y132.33824 F3353.39700
G1 X72.54617 Y130.11771 F3353.39700
G1 X76.62347 Y132.54209 F3071.43708
G1 X72.54617 Y130.11771 F3071.43708
G1 X76.48762 Y132.74831 F2827.70241
G1 X72.54617 Y130.11771 F2827.70241
G1 X76.19310 Y133.01229 F2525.01118
G1 X72.54617 Y130.11771 F2525.01118
G1 X76.58855 Y131.91839 F2165.11125
G1 X67.98803 Y126.80449 F1826.28741
G1 X71.88443 Y128.75269 F2087.10326
G1 X76.21433 Y130.47101 F2530.41008
G1 X64.24816 Y125.72223 F2530.41008
G1 X68.71270 Y127.30069 F2800.14285
G1 X73.21239 Y128.80228 F2948.61179
G1 X77.71208 Y130.30387 F2948.61179
G1 X73.24754 Y131.88232 F2800.14285
G1 X68.78299 Y130.30387 F2800.14285
G1 X72.91587 Y132.14486 F2293.85546
G1 X77.04875 Y130.30387 F2293.85546
G1 X73.15235 Y132.25207 F2087.10326
G1 X83.10965 Y127.27342 F2087.10326
G1 X76.55993 Y133.82314 F1663.09579
G1 X68.49590 Y127.42272 F1891.62106
G1 X77.86373 Y133.67499 F2118.38326
G1 X73.75440 Y131.49815 F2512.20923
G1 X69.55408 Y129.39799 F2629.58533
G1 X73.75440 Y131.49815 F2629.58533
G1 X69.64507 Y129.32130 F2512.20923
G1 X80.96207 Y135.31628 F2512.20923
G1 X77.06898 Y133.00143 F2300.97795
G1 X73.42189 Y130.56730 F2118.38326
G1 X64.05407 Y124.31502 F2118.38326
G1 X76.95813 Y130.06313 F2890.07678
G1 X65.12155 Y135.98142 F2629.58533
G1 X69.32186 Y133.88126 F2629.58533
G1 X73.43120 Y131.70442 F2512.20923
G1 X69.32186 Y129.52758 F2512.20923
G1 X73.52218 Y131.62773 F2629.58533
G1 X69.32186 Y129.52758 F2629.58533
G1 X73.43120 Y131.70442 F2512.20923
G1 X69.40888 Y129.31273 F2582.76043
G1 X73.21755 Y131.85472 F2377.80482
G1 X82.45700 Y124.52137 F2249.52922
G1 X82.45700 Y124.52137 F1761.98861
G1 X73.26906 Y132.24747 F2302.14906
G1 X73.26906 Y132.24747 F1481.64991
G1 X73.26839 Y123.42324 F1569.75340
G1 X63.20014 Y131.41440 F2525.01118
G1 X74.77786 Y123.68721 F2827.70241
G1 X70.70056 Y126.11158 F3071.43708
G1 X74.89236 Y128.33211 F3353.39700
G1 X70.70056 Y130.55264 F3353.39700
G1 X74.77786 Y128.12827 F3071.43708
G1 X70.70056 Y130.55264 F3071.43708
G1 X74.64200 Y127.92205 F2827.70241
G1 X70.70056 Y130.55264 F2827.70241
G1 X74.34749 Y127.65807 F2525.01118
G1 X70.70056 Y130.55264 F2525.01118
G1 X74.74293 Y128.75197 F2165.11125
G1 X66.14242 Y133.86587 F1826.28741
G1 X70.03881 Y131.91767 F2087.10326
G1 X74.36872 Y130.19935 F2530.41008
G1 X62.40255 Y134.94813 F2530.41008
G1 X66.86709 Y133.36967 F2800.14285
G1 X71.36678 Y131.86808 F2948.61179
G1 X75.86647 Y130.36649 F2948.61179
G1 X71.40192 Y131.94494 F2800.14285
G1 X75.86647 Y130.36649 F2800.14285
G1 X71.73359 Y132.20748 F2293.85546
G1 X75.86647 Y130.36649 F2293.85546
G1 X71.97007 Y132.31469 F2087.10326
G1 X81.92738 Y127.33603 F2087.10326
G1 X70.09079 Y133.25433 F2629.58533
G1 X82.99485 Y127.50622 F2890.07678
G1 X71.67785 Y133.50120 F2512.20923
G1 X75.87816 Y131.40104 F2629.58533
G1 X71.98507 Y129.08619 F2300.97795
G1 X75.87816 Y131.40104 F2300.97795
G1 X71.76883 Y129.22420 F2512.20923
G1 X75.87816 Y131.40104 F2512.20923
G1 X72.10538 Y129.02434 F2206.29640
G1 X81.75551 Y136.68365 F2383.29319
G1 X72.10538 Y129.02434 F2383.29319
G1 X84.04412 Y134.04396 F2551.40434
G1 X71.03600 Y129.17142 F2819.12911
G1 X82.45408 Y134.25760 F2430.25520
G1 X78.15161 Y132.44863 F2551.40434
G1 X74.15989 Y130.45277 F2211.20887
G1 X70.16816 Y128.45690 F2211.20887
G1 X74.37857 Y130.33243 F2430.25520
G1 X70.16816 Y132.20795 F2430.25520
G1 X74.03821 Y130.15786 F2112.50774
G1 X64.08091 Y135.13652 F2087.10326
G1 X74.03821 Y130.15786 F2087.10326
G1 X74.03821 Y130.15786 F0.16971
G1 X64.52510 Y134.91442 F1969.96315
G1 X74.98879 Y130.25338 F2165.11125
G1 X70.63425 Y131.88449 F2511.55851
G1 X75.23624 Y130.73399 F3632.43257
G1 X70.63425 Y129.58349 F3632.43257
G1 X75.20146 Y130.86512 F3260.77503
G1 X70.67697 Y129.44000 F3291.56373
G1 X75.24418 Y130.72162 F3660.09622
G1 X60.59884 Y126.10863 F3291.56373
G1 X60.59955 Y131.98667 F988.88268
G1 X60.60025 Y125.11870 F1175.98631
G1 X74.50191 Y131.31119 F3244.00150
G1 X61.68810 Y124.90428 F2951.60973
G1 X73.43651 Y131.49785 F2697.06789
G1 X63.20652 Y124.67016 F2377.80482
G1 X73.18757 Y129.38059 F2064.20710
G1 X86.24850 Y133.73915 F2783.11893
G1 X73.18757 Y129.38059 F2783.11893
G1 X87.34031 Y133.58822 F3091.48778
G1 X83.00767 Y131.65825 F2890.07678
G1 X78.80736 Y129.55809 F2629.58533
G1 X66.97077 Y135.47638 F2629.58533
G1 X78.80736 Y129.55809 F2629.58533
G1 X66.97077 Y135.47638 F2629.58533
G1 X78.90951 Y130.45676 F2551.40434
G1 X78.90880 Y124.57872 F988.88268
G1 X78.90808 Y130.45676 F988.88268
G1 X78.90737 Y124.57872 F988.88268
G1 X65.00571 Y130.77121 F3244.00150
G1 X78.90737 Y124.57872 F3244.00150
G1 X74.57421 Y126.50893 F3244.00150
G1 X70.13200 Y128.17288 F3763.08589
G1 X84.03366 Y134.36536 F3244.00150
G1 X79.29004 Y134.36517 F2963.29981
G1 X77.26918 Y133.76436 F3091.48778
G1 X69.53050 Y131.46364 F3091.48778
G1 X71.53036 Y130.79627 F2783.11893
G1 X78.87701 Y128.34462 F2783.11893
G1 X76.87715 Y129.01199 F2783.11893
G1 X76.37719 Y129.17883 F2783.11893
G1 X71.77520 Y130.32933 F3632.43257
G1 X76.37719 Y131.47983 F3632.43257
G1 X76.37719 Y131.47983 F0.16971
G1 X62.58923 Y124.58585 F3313.06990
G1 X62.58923 Y124.58585 F3313.06990
G1 X62.58991 Y132.98734 F1481.64991
G1 X76.37787 Y126.09337 F3313.06990
G1 X72.13504 Y128.21478 F3313.06990
G1 X76.42493 Y130.23934 F3471.56871
G1 X72.13504 Y132.26389 F3471.56871
G1 X76.37787 Y130.14248 F3313.06990
G1 X72.13504 Y132.26389 F3313.06990
G1 X76.27171 Y129.94227 F3027.35634
G1 X72.13504 Y132.26389 F3027.35634
G1 X76.13913 Y129.74147 F2779.75927
G1 X72.13504 Y132.26389 F2779.75927
G1 X76.13913 Y129.74147 F2779.75927
G1 X76.13913 Y129.74147 F2551.40434
G1 X65.72610 Y134.94799 F2211.20887
G1 X69.93651 Y133.07247 F2430.25520
G1 X69.93651 Y133.07247 F988.88268
G1 X74.23898 Y131.26350 F2551.40434
G1 X69.93651 Y129.45454 F2551.40434
G1 X74.37320 Y131.11642 F2819.12911
G1 X69.93651 Y129.45454 F2819.12911
G1 X74.37320 Y131.11642 F2819.12911
G1 X61.36509 Y126.24388 F2819.12911
G1 X61.36509 Y126.24388 F2819.12911
G1 X73.30382 Y131.26350 F2551.40434
G1 X61.36509 Y126.24388 F2551.40434
G1 X73.11349 Y132.83745 F2697.06789
G1 X73.11417 Y124.43596 F1481.64991
G1 X73.11485 Y132.83745 F1481.64991
G1 X77.25152 Y130.51583 F3027.35634
G1 X73.00869 Y128.39441 F3313.06990
G1 X73.00869 Y128.39441 F2963.29981
G1 X77.25152 Y130.51583 F3313.06990
G1 X72.80931 Y128.85188 F4223.92110
G1 X89.21241 Y134.99610 F4223.92110
G1 X89.21241 Y134.99610 F3955.53068
G1 X84.83957 Y133.15755 F3822.78718
G1 X80.70291 Y130.83592 F3027.35634
G1 X76.56624 Y128.51429 F3027.35634
G1 X72.56215 Y131.03671 F2779.75927
G1 X84.20251 Y123.70375 F2779.75927
G1 X70.10320 Y128.40883 F3123.94537
G1 X74.67041 Y129.69045 F3660.09622
G1 X70.23371 Y131.35234 F2819.12911
G1 X74.67041 Y129.69045 F2819.12911
G1 X70.36794 Y131.49942 F2551.40434
G1 X74.67041 Y129.69045 F2551.40434
G1 X70.17072 Y131.19205 F3123.94537
G1 X84.27003 Y126.48697 F3123.94537
G1 X70.17072 Y131.19205 F3123.94537
G1 X84.27003 Y126.48697 F3123.94537
G1 X70.36837 Y132.67945 F3244.00150
G1 X70.36908 Y127.10254 F933.38096
G1 X70.36941 Y129.64900 F933.38096
G1 X74.13831 Y131.64550 F1993.94179
G1 X69.80841 Y129.92718 F2530.41008
G1 X74.27295 Y131.50564 F2800.14285
G1 X69.80841 Y129.92718 F2800.14285
G1 X74.27295 Y131.50564 F2800.14285
G1 X69.80841 Y129.92718 F2800.14285
G1 X74.27295 Y131.50564 F2800.14285
G1 X69.80841 Y129.92718 F2800.14285
G1 X74.13831 Y131.64550 F2530.41008
G1 X69.80841 Y129.92718 F2530.41008
G1 X74.13831 Y131.64550 F2530.41008
G1 X62.17214 Y126.89673 F2530.41008
G1 X62.17286 Y132.18627 F880.99431
G1 X62.17319 Y129.75709 F880.99431
G1 X65.96557 Y131.65328 F1969.96315
G1 X65.96557 Y131.65328 F880.99431
G1 X70.32010 Y130.02217 F2511.55851
G1 X74.80961 Y131.52037 F2783.11893
G1 X70.32010 Y130.02217 F2783.11893
G1 X74.95027 Y131.05343 F4052.45283
G1 X70.34828 Y129.90293 F4077.26770
G1 X74.91549 Y131.18456 F3660.09622
G1 X70.34828 Y129.90293 F3660.09622
G1 X74.78498 Y131.56481 F2819.12911
G1 X70.34828 Y129.90293 F2819.12911
G1 X74.65075 Y131.71190 F2551.40434
G1 X62.71202 Y126.69227 F2551.40434
G1 X67.04518 Y128.62248 F3244.00150
G1 X71.37834 Y130.55268 F3244.00150
G1 X75.71150 Y128.62248 F3244.00150
G1 X71.37834 Y130.55268 F3244.00150
G1 X71.37834 Y130.55268 F1320.00001
G1 X85.28000 Y124.36020 F3244.00150
G1 X80.94684 Y126.29040 F3244.00150
G1 X76.61368 Y128.22060 F3244.00150
G1 X76.61368 Y128.22060 F1320.00001
G1 X72.28052 Y130.15081 F3244.00150
G1 X76.61368 Y132.08101 F3244.00150
G1 X72.28052 Y130.15081 F3244.00150
G1 X76.61368 Y132.08101 F3244.00150
G1 X62.71202 Y125.88852 F3244.00150
G1 X67.04518 Y127.81873 F3244.00150
G1 X71.37834 Y129.74893 F3244.00150
G1 X88.15824 Y133.48623 F4052.45283
G1 X83.55625 Y132.33573 F3632.43257
G1 X79.00932 Y130.98392 F3091.48778
G1 X74.40733 Y129.83342 F3632.43257
G1 X74.40733 Y129.83342 F880.99431
G1 X69.86040 Y131.18523 F3091.48778
G1 X74.46239 Y130.03474 F3632.43257
G1 X69.83222 Y131.06599 F4052.45283
G1 X74.57584 Y131.06585 F3955.53068
G1 X72.53051 Y130.55451 F3632.43257
G1 X80.67436 Y128.51855 F3632.43257
G1 X78.65350 Y129.11936 F3091.48778
G1 X78.14829 Y129.26956 F3091.48778
G1 X76.14843 Y129.93693 F2783.11893
G1 X75.65485 Y130.12181 F2511.55851
G1 X75.16127 Y130.30670 F2511.55851
G1 X75.16127 Y130.30670 F880.99431
G1 X74.67981 Y130.52116 F2165.11125
G1 X74.19834 Y130.30670 F2165.11125
G1 X69.84381 Y131.93781 F2511.55851
G1 X69.84381 Y131.93781 F880.99431
G1 X74.33332 Y130.43961 F2783.11893
G1 X67.78360 Y123.88989 F1663.09579
G1 X75.84762 Y130.29031 F1891.62106
G1 X66.47980 Y136.54258 F2118.38326
G1 X70.58913 Y134.36574 F2512.20923
G1 X70.58913 Y134.36574 F1175.98631
G1 X74.78945 Y132.26558 F2629.58533
G1 X70.58913 Y130.16542 F2629.58533
G1 X74.69846 Y132.34227 F2512.20923
G1 X63.38146 Y126.34729 F2512.20923
G1 X63.38146 Y126.34729 F2512.20923
G1 X67.27455 Y128.66214 F2300.97795
G1 X67.27455 Y128.66214 F1175.98631
G1 X70.92163 Y131.09627 F2118.38326
G1 X80.28946 Y124.84400 F2118.38326
G1 X67.38540 Y130.59211 F2890.07678
G1 X79.22198 Y124.67382 F2629.58533
G1 X75.02166 Y126.77397 F2629.58533
G1 X75.02166 Y126.77397 F1175.98631
G1 X70.91233 Y128.95082 F2512.20923
G1 X75.02166 Y131.12766 F2512.20923
G1 X70.82135 Y129.02750 F2629.58533
G1 X75.02166 Y131.12766 F2629.58533
G1 X70.91233 Y128.95082 F2512.20923
G1 X74.93465 Y131.34250 F2582.76043
G1 X71.12598 Y128.80052 F2377.80482
G1 X71.12598 Y128.80052 F2422.25796
G1 X80.36542 Y136.13387 F2249.52922
G1 X71.17749 Y128.40777 F2302.14906
G1 X71.17816 Y137.23200 F1569.75340
G1 X81.24640 Y129.24083 F2525.01118
G1 X69.66869 Y136.96803 F2827.70241
G1 X69.66869 Y136.96803 F0.16971
G1 X73.74599 Y134.54365 F3071.43708
G1 X69.55418 Y132.32312 F3353.39700
G1 X73.74599 Y130.10259 F3353.39700
G1 X69.66869 Y132.52697 F3071.43708
G1 X69.66869 Y132.52697 F2640.00000
G1 X73.74599 Y130.10259 F3071.43708
G1 X69.80454 Y132.73319 F2827.70241
G1 X73.74599 Y130.10259 F2827.70241
G1 X70.09906 Y132.99716 F2525.01118
G1 X70.09906 Y132.99716 F1977.76535
G1 X73.74599 Y130.10259 F2525.01118
G1 X69.70361 Y131.90326 F2165.11125
G1 X78.30413 Y126.78937 F1826.28741
G1 X78.30413 Y126.78937 F0.16971
G1 X74.40773 Y128.73757 F2087.10326
G1 X70.07783 Y130.45589 F2530.41008
G1 X82.04400 Y125.70711 F2530.41008
G1 X77.57946 Y127.28557 F2800.14285
G1 X73.07977 Y128.78716 F2948.61179
G1 X77.57946 Y130.28875 F2948.61179
G1 X73.11491 Y131.86720 F2800.14285
G1 X77.57946 Y130.28875 F2800.14285
G1 X73.44658 Y132.12973 F2293.85546
G1 X69.31370 Y130.28875 F2293.85546
G1 X73.21010 Y132.23694 F2087.10326
G1 X83.16740 Y127.25829 F2087.10326
G1 X71.33082 Y133.17658 F2629.58533
G1 X84.23488 Y127.42848 F2890.07678
G1 X72.91787 Y133.42345 F2512.20923
G1 X77.11819 Y131.32330 F2629.58533
G1 X73.22510 Y129.00845 F2300.97795
G1 X77.11819 Y131.32330 F2300.97795
G1 X73.00886 Y129.14645 F2512.20923
G1 X77.11819 Y131.32330 F2512.20923
G1 X73.34541 Y128.94659 F2206.29640
G1 X63.69528 Y136.60591 F2383.29319
G1 X73.34541 Y128.94659 F2383.29319
G1 X61.40667 Y133.96621 F2551.40434
G1 X74.41479 Y129.09368 F2819.12911
G1 X62.99670 Y134.17985 F2430.25520
G1 X67.29917 Y132.37089 F2551.40434
G1 X71.29090 Y130.37502 F2211.20887
G1 X75.28262 Y132.37089 F2211.20887
G1 X71.07222 Y130.49536 F2430.25520
G1 X75.28262 Y128.61984 F2430.25520
G1 X71.41257 Y130.66993 F2112.50774
G1 X81.36988 Y125.69128 F2087.10326
G1 X71.41257 Y130.66993 F2087.10326
G1 X80.92568 Y125.91337 F1969.96315
G1 X70.46200 Y130.57441 F2165.11125
G1 X74.81654 Y128.94331 F2511.55851
G1 X70.21454 Y130.09380 F3632.43257
G1 X74.81654 Y131.24430 F3632.43257
G1 X74.81654 Y131.24430 F880.99431
G1 X70.24933 Y129.96267 F3260.77503
G1 X74.77381 Y131.38780 F3291.56373
G1 X70.20661 Y130.10617 F3660.09622
G1 X84.85195 Y134.71916 F3291.56373
G1 X84.85123 Y128.84112 F988.88268
G1 X84.85053 Y135.70909 F1175.98631
G1 X70.94887 Y129.51660 F3244.00150
G1 X83.76268 Y135.92351 F2951.60973
G1 X72.01428 Y129.32994 F2697.06789
G1 X82.24426 Y136.15763 F2377.80482
G1 X72.26321 Y131.44721 F2064.20710
G1 X175.88922 Y92.63131 F2511.55851
G1 X171.89326 Y92.63158 F1761.98861
G1 X169.96742 Y93.48945 F2165.11125
G1 X169.48595 Y93.70392 F2165.11125
G1 X165.13142 Y95.33503 F2511.55851
G1 X165.13142 Y95.33503 F880.99431
G1 X163.13156 Y96.00240 F2783.11893
G1 X162.63159 Y96.16924 F2783.11893
G1 X158.08466 Y97.52105 F3091.48778
G1 X158.08466 Y97.52105 F880.99431
G1 X156.08480 Y98.18843 F2783.11893
G1 X148.73815 Y100.64008 F2783.11893
G1 X144.24864 Y102.13827 F2783.11893
G1 X144.24864 Y102.13827 F2890.07678
G1 X139.91599 Y104.06824 F2890.07678
G1 X139.91599 Y104.06824 F1175.98631
G1 X135.71568 Y106.16840 F2629.58533
G1 X123.87910 Y112.08669 F2629.58533
G1 X112.04251 Y118.00499 F2629.58533
G1 X100.20593 Y123.92328 F2629.58533
G1 X88.26719 Y128.94290 F2551.40434
G1 X88.26719 Y128.94290 F2551.40434
G1 X88.26648 Y134.82094 F988.88268
G1 X88.26577 Y128.94290 F988.88268
G1 X88.26505 Y134.82094 F988.88268
G1 X74.36339 Y128.62845 F3244.00150
G1 X60.46173 Y134.82094 F3244.00150
G1 X64.79489 Y132.89073 F3244.00150
G1 X69.23710 Y131.22678 F3763.08589
G1 X83.13876 Y125.03430 F3244.00150
G1 X78.39514 Y125.03449 F2963.29981
G1 X76.37428 Y125.63529 F3091.48778
G1 X68.63561 Y127.93602 F3091.48778
G1 X70.63547 Y128.60339 F2783.11893
G1 X77.98212 Y131.05504 F2783.11893
G1 X77.98192 Y129.57932 F880.99431
G1 X77.98146 Y132.96195 F880.99431
G1 X77.98113 Y130.53278 F880.99431
G1 X63.98746 Y124.97939 F3188.11693
G1 X63.98746 Y124.97939 F0.16971
G1 X76.89153 Y130.72750 F2890.07678
G1 X76.89153 Y130.72750 F2890.07678
G1 X65.05494 Y124.80921 F2629.58533
G1 X65.05494 Y124.80921 F0.16971
G1 X77.95900 Y130.55731 F2890.07678
G1 X63.85970 Y125.85223 F3123.94537
G1 X75.79844 Y130.87185 F2551.40434
G1 X63.85970 Y125.85223 F2551.40434
G1 X76.86781 Y130.72477 F2819.12911
G1 X65.11941 Y124.13120 F2697.06789
G1 X76.86781 Y130.72477 F2697.06789
G1 X72.75568 Y128.41691 F2697.06789
G1 X77.19789 Y130.08086 F3763.08589
G1 X63.29623 Y136.27335 F3244.00150
G1 X68.03985 Y136.27315 F2963.29981
G1 X70.06071 Y135.67235 F3091.48778
G1 X70.06071 Y135.67235 F2963.29981
G1 X77.79939 Y133.37163 F3091.48778
G1 X77.79939 Y133.37163 F3091.48778
G1 X75.79952 Y132.70425 F2783.11893
G1 X75.79952 Y132.70425 F2640.00000
G1 X68.45287 Y130.25260 F2783.11893
G1 X70.45273 Y130.91998 F2783.11893
G1 X70.45273 Y130.91998 F2640.00000
G1 X77.79939 Y128.46832 F2783.11893
G1 X73.30987 Y129.96652 F2783.11893
G1 X59.31621 Y135.51991 F3188.11693
G1 X72.22027 Y129.77180 F2890.07678
G1 X84.05685 Y135.69009 F2629.58533
G1 X71.15279 Y129.94199 F2890.07678
G1 X85.25210 Y134.64707 F3123.94537
G1 X73.31336 Y129.62745 F2551.40434
G1 X61.37462 Y134.64707 F2551.40434
G1 X74.38274 Y129.77453 F2819.12911
G1 X62.63433 Y136.36810 F2697.06789
G1 X74.38274 Y129.77453 F2697.06789
G1 X70.27060 Y132.08239 F2697.06789
G1 X74.71281 Y130.41844 F3763.08589
G1 X74.71281 Y130.41844 F1320.00001
G1 X60.81115 Y124.22595 F3244.00150
G1 X65.55478 Y124.22615 F2963.29981
G1 X67.57563 Y124.82695 F3091.48778
G1 X67.57563 Y124.82695 F2963.29981
G1 X75.31431 Y127.12767 F3091.48778
G1 X73.31445 Y127.79505 F2783.11893
G1 X65.96780 Y130.24670 F2783.11893
G1 X67.96766 Y130.91407 F2783.11893
G1 X67.96766 Y130.91407 F2640.00000
G1 X75.31431 Y128.46242 F2783.11893
G1 X70.82480 Y129.96062 F2783.11893
G1 X84.81846 Y135.51400 F3188.11693
G1 X71.91440 Y129.76590 F2890.07678
G1 X83.75098 Y135.68419 F2629.58533
G1 X70.84692 Y129.93608 F2890.07678
G1 X84.94623 Y134.64116 F3123.94537
G1 X73.00749 Y129.62154 F2551.40434
G1 X84.94623 Y134.64116 F2551.40434
G1 X71.93811 Y129.76862 F2819.12911
G1 X83.68652 Y136.36219 F2697.06789
G1 X71.93811 Y129.76862 F2697.06789
G1 X76.05025 Y132.07648 F2697.06789
G1 X76.05025 Y132.07648 F1320.00001
G1 X71.60804 Y130.41254 F3763.08589
G1 X71.60804 Y130.41254 F3763.08589
G1 X85.50970 Y124.22005 F3244.00150
G1 X80.76608 Y124.22024 F2963.29981
G1 X78.74522 Y124.82105 F3091.48778
G1 X71.00654 Y127.12177 F3091.48778
G1 X73.00640 Y127.78914 F2783.11893
G1 X80.35305 Y130.24079 F2783.11893
G1 X78.35319 Y130.90817 F2783.11893
G1 X71.00654 Y128.45652 F2783.11893
G1 X75.49605 Y129.95471 F2783.11893
G1 X61.50239 Y135.50810 F3188.11693
G1 X74.40645 Y129.75999 F2890.07678
G1 X62.56987 Y135.67829 F2629.58533
G1 X75.47393 Y129.93018 F2890.07678
G1 X61.37462 Y134.63526 F3123.94537
G1 X73.31336 Y129.61564 F2551.40434
G1 X61.37462 Y134.63526 F2551.40434
G1 X74.38274 Y129.76272 F2819.12911
G1 X62.63433 Y136.35629 F2697.06789
G1 X74.38274 Y129.76272 F2697.06789
G1 X70.27060 Y132.07058 F2697.06789
G1 X74.71281 Y130.40663 F3763.08589
G1 X60.81115 Y124.21415 F3244.00150
G1 X65.55478 Y124.21434 F2963.29981
G1 X67.57563 Y124.81514 F3091.48778
G1 X75.31431 Y127.11586 F3091.48778
G1 X75.31431 Y127.11586 F880.99431
G1 X73.31445 Y127.78324 F2783.11893
G1 X65.96780 Y130.23489 F2783.11893
G1 X67.96766 Y130.90226 F2783.11893
G1 X75.31431 Y128.45061 F2783.11893
G1 X70.82480 Y129.94881 F2783.11893
G1 X84.81846 Y135.50220 F3188.11693
G1 X84.81846 Y135.50220 F0.16971
G1 X71.91440 Y129.75409 F2890.07678
G1 X71.91440 Y129.75409 F2890.07678
G1 X83.75098 Y135.67238 F2629.58533
G1 X83.75098 Y135.67238 F0.16971
G1 X70.84692 Y129.92428 F2890.07678
G1 X84.94623 Y134.62935 F3123.94537
G1 X84.94623 Y134.62935 F0.16971
G1 X73.00749 Y129.60973 F2551.40434
G1 X84.94623 Y134.62935 F2551.40434
G1 X71.93811 Y129.75682 F2819.12911
G1 X83.68652 Y136.35039 F2697.06789
G1 X71.93811 Y129.75682 F2697.06789
G1 X76.05025 Y132.06468 F2697.06789
G1 X71.60804 Y130.40073 F3763.08589
G1 X71.60804 Y130.40073 F1320.00001
G1 X85.50970 Y124.20824 F3244.00150
G1 X80.76608 Y124.20843 F2963.29981
G1 X78.74522 Y124.80924 F3091.48778
G1 X71.00654 Y127.10996 F3091.48778
G1 X71.00654 Y127.10996 F3091.48778
G1 X73.00640 Y127.77733 F2783.11893
G1 X73.00640 Y127.77733 F2640.00000
G1 X80.35305 Y130.22899 F2783.11893
G1 X78.35319 Y130.89636 F2783.11893
G1 X78.35319 Y130.89636 F2640.00000
G1 X71.00654 Y128.44471 F2783.11893
G1 X75.49605 Y129.94290 F2783.11893
G1 X75.49605 Y129.94290 F0.16971
G1 X61.50239 Y135.49629 F3188.11693
G1 X74.40645 Y129.74819 F2890.07678
G1 X62.56987 Y135.66648 F2629.58533
G1 X75.47393 Y129.91837 F2890.07678
G1 X61.37462 Y134.62345 F3123.94537
G1 X73.31336 Y129.60383 F2551.40434
G1 X61.37462 Y134.62345 F2551.40434
G1 X74.38274 Y129.75091 F2819.12911
G1 X62.63433 Y136.34448 F2697.06789
G1 X74.38274 Y129.75091 F2697.06789
G1 X70.27060 Y132.05877 F2697.06789
G1 X74.71281 Y130.39482 F3763.08589
G1 X74.71281 Y130.39482 F1320.00001
G1 X60.81115 Y124.20234 F3244.00150
G1 X65.55478 Y124.20253 F2963.29981
G1 X67.57563 Y124.80333 F3091.48778
G1 X67.57563 Y124.80333 F2963.29981
G1 X75.31431 Y127.10406 F3091.48778
G1 X75.31431 Y127.10406 F3091.48778
G1 X73.31445 Y127.77143 F2783.11893
G1 X73.31445 Y127.77143 F2640.00000
G1 X65.96780 Y130.22308 F2783.11893
G1 X67.96766 Y130.89045 F2783.11893
G1 X67.96766 Y130.89045 F2640.00000
G1 X75.31431 Y128.43880 F2783.11893
G1 X70.82480 Y129.93700 F2783.11893
